satname,norad_id,inclination_deg,eccentricity,mean_motion_rev_per_day,perigee_km,apogee_km,l1,l2
STARLINK-1008,44714,53.0523,0.0001304,15.06406711,546.2879269963323,548.0940525360638,1 44714U 19074B   25262.33088703  .00000892  00000+0  78753-4 0  9992,2 44714  53.0523 235.8784 0001304  89.6834 270.4305 15.06406711322923
STARLINK-1010,44716,53.0513,0.0009838,15.77957764,329.6220781488455,342.8332620737556,1 44716U 19074D   25263.25003472  .00168000  00000+0  95396-3 0  9993,2 44716  53.0513 181.1096 0009838  54.2843 315.3409 15.77957764  6088
STARLINK-1011,44717,53.0498,0.0006737,15.68015431,360.0377562189551,369.1228935424997,1 44717U 19074E   25263.25003472  .00177358  00000+0  15398-2 0  9993,2 44717  53.0498 234.8916 0006737  51.1175 136.3066 15.68015431  6005
STARLINK-1012,44718,53.0529,0.0001548,15.06397273,546.1478705625577,548.2919610636927,1 44718U 19074F   25262.64050759  .00000290  00000+0  38376-4 0  9999,2 44718  53.0529 234.4890 0001548  91.2738 268.8429 15.06397273322962
STARLINK-1015,44721,53.0437,3.33e-05,15.9937737,275.92354058341607,276.36671577315246,1 44721U 19074J   25263.25003472  .00395465  77155-4  78628-3 0  9995,2 44721  53.0437 168.7596 0000333 335.2105  61.2275 15.99377370  6125
STARLINK-1017,44723,53.0513,0.0003921,15.10984235,530.487138238801,535.9070064183215,1 44723U 19074L   25262.99406720  .00031055  00000+0  18484-2 0  9995,2 44723  53.0513 231.3939 0003921  16.2756 343.8360 15.10984235323048
STARLINK-1019,44724,53.0538,0.0001852,15.06402669,545.9208048117835,548.4859508877398,1 44724U 19074M   25262.63682620  .00000983  00000+0  84888-4 0  9991,2 44724  53.0538 234.5059 0001852  87.1499 272.9702 15.06402669322969
STARLINK-1020,44725,53.055,0.0001327,15.0639415,546.3104912708677,548.1484835366246,1 44725U 19074N   25262.37696519  .00001139  00000+0  95338-4 0  9991,2 44725  53.0550 255.6730 0001327  98.1292 261.9848 15.06394150322643
STARLINK-1021,44726,53.0454,0.0002009,15.93190571,292.0206374820773,294.7012453549387,1 44726U 19074P   25263.25003472  .00354179  59466-4  98839-3 0  9998,2 44726  53.0454 174.6844 0002009  25.4608  52.3360 15.93190571  6125
STARLINK-1029,44734,53.0495,0.0005014,15.87080357,307.1196877454013,313.82702621138014,1 44734U 19074X   25263.33336806  .00297478  00000+0  10864-2 0  9990,2 44734  53.0495  98.1001 0005014 113.5518 316.6007 15.87080357  6118
STARLINK-1031,44736,53.0535,0.0008203,15.37769395,447.10363701376355,458.3103196446109,1 44736U 19074Z   25262.93954414  .00099792  00000+0  26235-2 0  9996,2 44736  53.0535 233.0653 0008203  23.0225 337.1144 15.37769395323024
STARLINK-1036,44741,53.0539,0.0001097,15.06401277,546.4479338125047,547.9673544274247,1 44741U 19074AE  25262.67184310  .00001253  00000+0  10297-3 0  9990,2 44741  53.0539 254.3506 0001097  89.8620 270.2495 15.06401277322696
STARLINK-1039,44744,53.0522,0.000537,15.09331057,534.5287351567467,541.9569270953771,1 44744U 19074AH  25262.47174612  .00018852  00000+0  11831-2 0  9992,2 44744  53.0522 274.5963 0005370 345.5560  14.5275 15.09331057322398
STARLINK-1042,44747,53.0478,0.0003371,15.40853696,441.2888737031253,445.88808101996256,1 44747U 19074AL  25262.98034839  .00016896  00000+0  41431-3 0  9993,2 44747  53.0478 188.3019 0003371  34.5231 325.5992 15.40853696323670
STARLINK-1043,44748,53.0533,9.39e-05,15.06393119,546.582355082628,547.8829395023895,1 44748U 19074AM  25263.04227710 -.00000350  00000+0 -45858-5 0  9993,2 44748  53.0533 272.6869 0000939  81.9875 278.1221 15.06393119322476
STARLINK-1046,44751,53.0535,0.0001434,15.06393683,546.2378209415774,548.2240164606619,1 44751U 19074AQ  25262.32721038  .00002178  00000+0  16507-3 0  9994,2 44751  53.0535 275.8983 0001434  89.4791 270.6363 15.06393683322363
STARLINK-1047,44752,53.0694,0.0005171,15.2797819,478.30972795801154,485.4043337847379,1 44752U 19074AR  25262.58842810  .00009461  00000+0  35419-3 0  9990,2 44752  53.0694 222.6174 0005171  54.7220 305.4261 15.27978190323142
STARLINK-1048,44753,53.0532,0.0001324,15.06395071,546.3097465053615,548.1435828037629,1 44753U 19074AS  25262.95012282  .00001380  00000+0  11155-3 0  9997,2 44753  53.0532 233.0992 0001324  88.8288 271.2853 15.06395071323017
STARLINK-1053,44758,53.0427,0.0003314,15.55069052,399.7049896907447,404.1988326210594,1 44758U 19074AX  25262.58061420  .00039223  00000+0  57733-3 0  9998,2 44758  53.0427 208.4086 0003314  73.6654 286.4720 15.55069052323343
STARLINK-1054,44759,53.0446,0.0010491,15.65486388,364.75887566709207,378.92167798933315,1 44759U 19074AY  25263.25003472  .00209584  00000+0  20032-2 0  9997,2 44759  53.0446 234.9247 0010491  19.6049 155.5055 15.65486388  5946
STARLINK-1056,44761,53.0428,0.0010538,15.77140159,331.4699555490288,345.6260408512344,1 44761U 19074BA  25263.33336806  .00177196  00000+0  10417-2 0  9998,2 44761  53.0428 224.0095 0010538  41.1408  90.9241 15.77140159  5980
STARLINK-1057,44762,53.0426,0.0002312,15.96038454,283.8817957913998,286.9630256629207,1 44762U 19074BB  25263.33336806  .00410531  79210-4  98235-3 0  9991,2 44762  53.0426 194.9361 0002312  51.2900 223.3135 15.96038454  6137
STARLINK-1060,44765,53.0544,0.0001583,15.33770741,463.4909687936233,465.65737115003594,1 44765U 19074BE  25263.25003472  .01524007  00000+0  42030-1 0  9996,2 44765  53.0544 249.9968 0001583  67.4981 213.2665 15.33770741  5859
STARLINK-1063,44768,53.0529,0.0001445,15.06400399,546.2096223710969,548.2110477509295,1 44768U 19074BH  25263.11231918  .00005320  00000+0  37575-3 0  9993,2 44768  53.0529 272.3718 0001445  87.8814 272.2340 15.06400399322492
STARLINK-1067,44771,53.0547,0.0001637,15.06383502,546.1284345572767,548.3958102299484,1 44771U 19074BL  25263.03491613  .00005533  00000+0  39023-3 0  9994,2 44771  53.0547 272.7218 0001637  70.5898 289.5267 15.06383502322472
STARLINK-1068,44772,53.0507,0.0001171,15.06375504,546.475668559855,548.0976027753277,1 44772U 19074BM  25262.95935001  .00001728  00000+0  13494-3 0  9995,2 44772  53.0507 253.0584 0001171  62.8805 297.2304 15.06375504322732
STARLINK-1112,44925,53.0546,0.0003959,15.45478157,427.2781337515671,432.66879561750375,1 44925U 20001M   25262.55173208  .00021890  00000+0  45698-3 0  9999,2 44925  53.0546   5.6497 0003959 146.7157 213.4099 15.45478157314460
STARLINK-1114,44927,53.0568,0.0001425,15.06398727,546.2285967772004,548.2023222281587,1 44927U 20001P   25263.06438628  .00000516  00000+0  53522-4 0  9996,2 44927  53.0568  32.5882 0001425  98.9330 261.1821 15.06398727314138
STARLINK-1123,44930,53.0569,0.0001277,15.0640151,546.3225635897606,548.0912964294848,1 44930U 20001S   25263.07913526  .00001731  00000+0  13509-3 0  9996,2 44930  53.0569  32.5201 0001277  88.5363 271.5772 15.06401510314139
STARLINK-1144,44933,53.049,0.0011342,15.49942372,409.187568798714,424.6014182386125,1 44933U 20001V   25262.94241634  .00098765  00000+0  17186-2 0  9995,2 44933  53.0490 342.3203 0011342 295.8587  64.1251 15.49942372316126
STARLINK-1091,44940,53.0433,0.0005097,15.75254294,340.4814294796861,347.3338818016455,1 44940U 20001AC  25263.25003472  .00088572  00000+0  57513-3 0  9998,2 44940  53.0433 326.6187 0005097 301.7993 110.5839 15.75254294  6059
STARLINK-1094,44941,53.0569,0.0001056,15.06392477,546.5032957031844,547.9659341882607,1 44941U 20001AD  25263.02569266 -.00000180  00000+0  67946-5 0  9995,2 44941  53.0569  12.7606 0001056 103.3082 256.8024 15.06392477314406
STARLINK-1096,44942,52.9933,0.0002556,15.75466971,341.58468943149455,345.0206894007242,1 44942U 20001AE  25262.94368115  .00091771  00000+0  59030-3 0  9994,2 44942  52.9933 154.8083 0002556 137.4314 222.6902 15.75466971317438
STARLINK-1122,44949,53.0593,0.0001349,15.06402135,546.2707858407484,548.139243116254,1 44949U 20001AM  25263.04780467  .00001094  00000+0  92299-4 0  9995,2 44949  53.0593  12.6547 0001349 109.6020 250.5114 15.06402135314404
STARLINK-1066,44954,53.0341,0.0001011,16.20118779,218.5624014858131,219.89638897092846,1 44954U 20001AS  25263.60307704  .01797476  11824-4  89844-3 0  9991,2 44954  53.0341 287.9651 0001011 342.0962  18.0040 16.20118779315588
STARLINK-1080,44961,53.055,9.67e-05,15.06395401,546.5559706781914,547.8953358153294,1 44961U 20001AZ  25262.58153673  .00007153  00000+0  49869-3 0  9996,2 44961  53.0550 354.7559 0000967  78.6280 281.4818 15.06395401314627
STARLINK-1090,44968,53.0569,0.0001264,15.06392943,546.3578199197209,548.1085535029215,1 44968U 20001BG  25262.51887763 -.00000188  00000+0  62669-5 0  9997,2 44968  53.0569 355.0367 0001264  88.5679 271.5455 15.06392943314612
STARLINK-1107,44972,53.0129,0.0008121,15.54920476,396.8773447293006,407.89026662187916,1 44972U 20001BL  25262.36491187  .00068297  00000+0  10008-2 0  9997,2 44972  53.0129 286.8549 0008121  42.2464 317.9170 15.54920476315554
STARLINK-1132,45044,53.0546,0.0001425,15.064028,546.2161154082132,548.1898373014747,1 45044U 20006A   25263.14180556  .00007364  00000+0  51271-3 0  9991,2 45044  53.0546 312.2393 0001425  89.3964 270.7188 15.06402800311033
STARLINK-1131,45047,53.0566,0.0001396,15.06391074,546.2721325000521,548.2056974555135,1 45047U 20006D   25262.91886983  .00002335  00000+0  17564-3 0  9995,2 45047  53.0566 333.7804 0001396  85.9618 274.1531 15.06391074310712
STARLINK-1134,45048,53.0462,0.0008084,15.23291862,490.3624487617253,501.4764232074249,1 45048U 20006E   25263.14094966  .00029380  00000+0  12310-2 0  9996,2 45048  53.0462 316.1598 0008084   4.3143 355.7921 15.23291862310983
STARLINK-1156,45054,53.0551,0.0001336,15.06395046,546.3015126805476,548.1519698722168,1 45054U 20006L   25262.88931474  .00002976  00000+0  21860-3 0  9990,2 45054  53.0551 333.3761 0001336  87.5600 272.5542 15.06395046310712
STARLINK-1159,45057,53.0574,0.000151,15.06391933,546.1905508761338,548.2820136073715,1 45057U 20006P   25262.90406418  .00000499  00000+0  52398-4 0  9990,2 45057  53.0574 333.3078 0001510  92.9628 267.1534 15.06391933310728
